#aV2022  6 28  0  0  0.00000000     288 DD+AD WGS84 FIT  NGA
## 2216 172800.00000000   300.00000000 59758 0.0000000000000
+   32     1  2  3  4  5  6  7  8  9 10 11 12 13 14 15 16 17
+         18 19 20 21 22 23 24 25 26 27 28 29 30 31 32  0  0
+          0  0  0  0  0  0  0  0  0  0  0  0  0  0  0  0  0
+          0  0  0  0  0  0  0  0  0  0  0  0  0  0  0  0  0
+          0  0  0  0  0  0  0  0  0  0  0  0  0  0  0  0  0
++         2  2  2  2  2  2  2  2  2  2  2  2  2  2  2  2  2
++         2  2  2  2  2  2  2  2  2  2  2  2  2  2  2  0  0
++         0  0  0  0  0  0  0  0  0  0  0  0  0  0  0  0  0
++         0  0  0  0  0  0  0  0  0  0  0  0  0  0  0  0  0
++         0  0  0  0  0  0  0  0  0  0  0  0  0  0  0  0  0
%c cc cc ccc ccc cccc cccc cccc cccc ccccc ccccc ccccc ccccc
%c cc cc ccc ccc cccc cccc cccc cccc ccccc ccccc ccccc ccccc
%f  0.0000000  0.000000000  0.00000000000  0.000000000000000
%f  0.0000000  0.000000000  0.00000000000  0.000000000000000
%i    0    0    0    0      0      0      0      0         0
%i    0    0    0    0      0      0      0      0         0
/*      NGA, ST. LOUIS,MO.                                  
/*   EPHEMERIS COMPUTED FROM 2 DAYS OF DATA                 
/*   EPOCHA v7 SMOOTHER                                     
/*   G2139 IERS2010 SATIGS SATAPC                           
*  2022  6 28  8 40  0.00000000
P  1   -300.494636 -15193.570223 -22048.140445    332.210327                    
V  1  26033.006851  -8015.353432   5578.139379     -0.077059                    
P  2 -19571.109748  15687.370294   9620.182461   -652.197678                    
V  2 -11162.287601   2497.788688 -28590.434480      0.004553                    
P  3  -8745.513303 -20651.205972 -14434.699481   -291.976394                    
V  3  14704.525578  10613.791253 -24176.196466     -0.111004                    
P  4    453.074101 -25397.492269   7609.621372   -152.170745                    
V  4   4823.253200  -8809.783913 -29813.955331      0.042505                    
P  5  -5151.452372  14846.435988  21222.779675    -87.151531                    
V  5 -21750.340331 -16622.796369   6441.835129     -0.013989                    
P  6 -25638.717873   5586.818845  -4321.506940    362.083710                    
V  6   4650.923089  -3543.483256 -31656.765667      0.159025                    
P  7 -16964.647265  -8698.655565  19099.223123    320.908659                    
V  7  21678.015660  -8519.471497  15223.200311     -0.009153                    
P  8   4850.174021 -25912.030934    488.066957    -73.966254                    
V  8   2888.842453   1187.970873  32032.391899     -0.015145                    
P  9  -7896.577542 -19752.672402  15816.831514   -324.310633                    
V  9   5587.599708 -19563.277736 -21583.457446      0.035718                    
P 10  22317.695339   9477.997476 -11034.996226   -471.911499                    
V 10   9414.653587  10677.326653  27552.865139     -0.142789                    
P 11 -21687.625227  12497.805148   8842.376002    -12.527163                    
V 11 -11505.130860    608.816801 -29084.547714      0.017463                    
P 12   4261.007823  20516.494356 -16653.132956   -238.015447                    
V 12 -15583.238528 -13527.003919 -20885.783381     -0.059045                    
P 13 -13195.097449  21418.420479   8078.619734    338.175634                    
V 13    970.878259 -10775.825374  29763.940847      0.070149                    
P 14 -22061.686372 -10966.650313 -10050.551534   -111.974629                    
V 14  -7457.055284 -10672.310528  27910.664906     -0.002088                    
P 15  -1736.189656  26326.222767     31.495253    -49.723541                    
V 15  -4015.363322   -791.598283  31270.432210      0.029978                    
P 16  11340.186403  -9703.049851  21704.291150   -511.991358                    
V 16  19571.013253  20281.260999   -702.156357     -0.025043                    
P 17 -14283.208738  -3194.018771 -21732.315172    630.419972                    
V 17   7216.150143 -27666.336636   -612.656853      0.045042                    
P 18  16431.302304   8450.267928  19114.517962    129.344847                    
V 18 -22720.639028   8475.346370  15660.037852     -0.111065                    
P 19 -16219.644629   5814.272091 -20404.931923    176.569637                    
V 19   6605.560374 -24499.857951 -12608.139976      0.049911                    
P 20 -15577.059778   7440.947721  20129.011860    507.716126                    
V 20 -21070.988147 -14724.093140 -11091.464926     -0.031766                    
P 21   9628.850171 -17099.058101 -16928.946147    161.268768                    
V 21  22030.517646  -7036.804017  19622.888458     -0.000861                    
P 22  16077.672752  -9224.987846 -18537.751150    283.221216                    
V 22  -5124.713391  23988.260990 -16195.106447      0.063633                    
P 23  20999.181419  16323.149772  -1137.434043    -30.342861                    
V 23   -458.153787   2792.690713  31833.148036     -0.019296                    
P 24  -3149.739735  17458.175568 -19953.896281    210.447295                    
V 24 -23443.032121   8515.635692  11739.548364     -0.091385                    
P 25  16601.594930  20061.150825  -6203.201813    342.741461                    
V 25  -7320.457423  -2920.714590 -30188.503299      0.045476                    
P 26  19161.253797  -2123.341552  18311.815512    215.058868                    
V 26  17426.802623  15701.862826 -16027.261029      0.022596                    
P 27  12423.389971 -19578.268121  12373.145037    218.627587                    
V 27   -770.847045  16338.796125  26553.049248      0.021107                    
P 28 -19665.742864  -3938.388564 -16784.077707    329.011426                    
V 28 -14022.943282 -17537.676439  20173.176832     -0.090316                    
P 29   6114.453898  19709.638848  16626.081444   -528.378616                    
V 29  -7086.994498  20032.720024 -21146.018318     -0.036741                    
P 30 -23813.053987  -1599.653320  12008.827889   -532.641373                    
V 30  13482.437423  -7292.005594  25702.257427     -0.010447                    
P 31  25893.226914  -6741.412418  -1918.518665   -183.584237                    
V 31  -1360.521609   3159.367168 -31189.930528     -0.015178                    
P 32  15365.647599     66.913946 -21501.151475   -162.342338                    
V 32  -4731.339974  27277.560137  -3458.766276     -0.096530                    
EOF
